format  = 'OEF2.0'       ! file format
rectype = '1L'           ! record type (1L/ML)
elem    = 'KEP'          ! type of orbital elements
refsys  = ECLM J2000     ! default reference system
END_OF_HEADER
! Name, Epoch(MJD), a, e, i, long. node, arg. peric., mean anomaly, absolute magnitude, slope param, non-grav param
433           59600.000000    1.4582731004919933E+00   2.2272733518842894E-01   1.0828461192253641E+01   3.0429635501527531E+02   1.7889716943295548E+02   2.4690411844800099E+02  10.85  0.46  0
6344P-L       59400.000000    2.8202277078203988E+00   6.6155999676965871E-01   4.6786111836540556E+00   1.8282300248385891E+02   2.3494660190063559E+02   3.2386152408344321E+02  20.40  0.15  0
2015GZ        59400.000000    2.8059248663363574E+00   7.1777101854979719E-01   1.3504485380561094E+01   1.9799756552626015E+01   1.1456930451775614E+02   1.2828981992766344E+02  26.06  0.15  0